38040,GLOBALSTAR M084,2011,114.08,700.0,+,52.0,Active,1,LEO,Kazakhstan,Globalstar,Commercial,Communications,Soyuz,1 38040U 11080A   25290.24125346 -.00000101  00000+0  14573-4 0  9996,2 38040  52.0030  36.8949 0000310  98.8573 272.0126 12.62269435638085,12.62269435,3.1e-05,LEO
38041,GLOBALSTAR M080,2011,114.08,700.0,+,52.01,Active,1,LEO,Kazakhstan,Globalstar,Commercial,Communications,Soyuz,1 38041U 11080B   25289.57990314 -.00000097  00000+0  36050-4 0  9994,2 38041  52.0078  40.5425 0001117  95.7958 277.5602 12.62269670638123,12.6226967,0.0001117,LEO
38042,GLOBALSTAR M082,2011,114.08,700.0,+,52.01,Active,1,LEO,Kazakhstan,Globalstar,Commercial,Communications,Soyuz,1 38042U 11080C   25290.32125071 -.00000086  00000+0  10146-3 0  9995,2 38042  52.0103 353.7628 0000807 104.3384 330.0794 12.62263774638926,12.62263774,8.07e-05,LEO
38043,GLOBALSTAR M092,2011,114.08,700.0,+,52.01,Active,1,LEO,Kazakhstan,Globalstar,Commercial,Communications,Soyuz,1 38043U 11080D   25290.15804541 -.00000085  00000+0  10272-3 0  9992,2 38043  52.0071  84.6405 0000824  95.8400  75.6522 12.62267047637350,12.62267047,8.24e-05,LEO
38044,GLOBALSTAR M090,2011,114.08,700.0,+,52.01,Active,1,LEO,Kazakhstan,Globalstar,Commercial,Communications,Soyuz,1 38044U 11080E   25289.46339698 -.00000080  00000+0  13186-3 0  9993,2 38044  52.0147 350.2518 0000574 118.9903 254.4552 12.62262862638934,12.62262862,5.74e-05,LEO
38045,GLOBALSTAR M086,2011,114.08,700.0,+,51.99,Active,1,LEO,Kazakhstan,Globalstar,Commercial,Communications,Soyuz,1 38045U 11080F   25290.20579159 -.00000072  00000+0  17462-3 0  9998,2 38045  51.9922 348.3174 0000829 205.7126 189.1513 12.62278266638975,12.62278266,8.29e-05,LEO
39072,GLOBALSTAR M097,2013,114.08,700.0,+,52.0,Active,1,LEO,Kazakhstan,Globalstar,Commercial,Communications,Soyuz,1 39072U 13005A   25290.22565285 -.00000103  00000+0  24993-5 0  9999,2 39072  52.0042 262.9333 0000403  88.4830 271.6083 12.62266494586224,12.62266494,4.03e-05,LEO
39073,GLOBALSTAR M093,2013,114.08,700.0,+,52.01,Active,1,LEO,Kazakhstan,Globalstar,Commercial,Communications,Soyuz,1 39073U 13005B   25290.27883056 -.00000092  00000+0  65078-4 0  9999,2 39073  52.0096 256.0262 0000518 106.0400 254.0524 12.62265352586188,12.62265352,5.18e-05,LEO
